NORAD_CAT_ID,OBJECT_NAME,OBJECT_TYPE,EPOCH,MEAN_MOTION,ECCENTRICITY,INCLINATION,RA_OF_ASC_NODE,ARG_OF_PERICENTER,MEAN_ANOMALY,BSTAR,MEAN_MOTION_DOT,MEAN_MOTION_DDOT,TLE_LINE0,TLE_LINE1,TLE_LINE2,SEMIMAJOR_AXIS,PERIOD,APOGEE,PERIGEE,DECAYED
51123.0,STARLINK-3392,PAYLOAD,2024-03-23 19:04:26,15.08836961,0.0001232,53.2162,262.8974,83.3394,276.7738,-1.962e-06,-3.19e-06,0.0,0 STARLINK-3392,1 51123U 22005V   24083.79475506 -.00000319  00000-0 -19620-5 0  9999,2 51123  53.2162 262.8974 0001232  83.3394 276.7738 15.08836961120807,6917.89,95.438,540.607,538.902,0.0
51123.0,STARLINK-3392,PAYLOAD,2024-03-24 10:58:18,15.08837166,0.0001616,53.2192,259.9276,100.996,259.1214,3.6457e-05,2.92e-06,0.0,0 STARLINK-3392,1 51123U 22005V   24084.45715419  .00000292  00000-0  36457-4 0  9997,2 51123  53.2192 259.9276 0001616 100.9960 259.1214 15.08837166120906,6917.889,95.438,540.872,538.636,0.0
51123.0,STARLINK-3392,PAYLOAD,2024-03-24 18:55:14,15.0883614,0.0001498,53.218,258.4377,94.0297,266.0867,3.0382e-05,1.96e-06,0.0,0 STARLINK-3392,1 51123U 22005V   24084.78835713  .00000196  00000-0  30382-4 0  9997,2 51123  53.2180 258.4377 0001498  94.0297 266.0867 15.08836140122031,6917.892,95.438,540.793,538.721,0.0
51123.0,STARLINK-3392,PAYLOAD,2024-03-25 04:27:31,15.08853917,0.0001338,53.2161,256.6493,83.0582,277.0562,0.00018558,2.668e-05,0.0,0 STARLINK-3392,1 51123U 22005V   24085.18577911  .00002668  00000-0  18558-3 0  9991,2 51123  53.2161 256.6493 0001338  83.0582 277.0562 15.08853917122098,6917.838,95.437,540.628,538.777,0.0
51123.0,STARLINK-3392,PAYLOAD,2024-03-25 18:46:02,15.0881756,0.0001538,53.2166,253.9765,81.3927,278.7239,-5.4681e-05,-1.158e-05,0.0,0 STARLINK-3392,1 51123U 22005V   24085.78197733 -.00001158  00000-0 -54681-4 0  9990,2 51123  53.2166 253.9765 0001538  81.3927 278.7239 15.08817560122184,6917.949,95.439,540.878,538.75,0.0
51123.0,STARLINK-3392,PAYLOAD,2024-03-26 04:18:21,15.08831124,0.0001855,53.2177,252.1916,82.7357,277.3846,-1.2831e-05,-4.92e-06,0.0,0 STARLINK-3392,1 51123U 22005V   24086.17941164 -.00000492  00000-0 -12831-4 0  9990,2 51123  53.2177 252.1916 0001855  82.7357 277.3846 15.08831124122247,6917.908,95.438,541.056,538.489,0.0
51123.0,STARLINK-3392,PAYLOAD,2024-03-26 18:36:49,15.08839531,0.0001496,53.2161,249.5161,78.8284,281.2877,0.00012211,1.656e-05,0.0,0 STARLINK-3392,1 51123U 22005V   24086.77556750  .00001656  00000-0  12211-3 0  9991,2 51123  53.2161 249.5161 0001496  78.8284 281.2877 15.08839531122336,6917.882,95.438,540.782,538.712,0.0
51123.0,STARLINK-3392,PAYLOAD,2024-03-27 10:30:40,15.0883562,0.0001561,53.2155,246.5405,91.7149,268.4022,0.00044984,6.878e-05,0.0,0 STARLINK-3392,1 51123U 22005V   24087.43797241  .00006878  00000-0  44984-3 0  9990,2 51123  53.2155 246.5405 0001561  91.7149 268.4022 15.08835620122439,6917.894,95.438,540.839,538.679,0.0
51123.0,STARLINK-3392,PAYLOAD,2024-03-27 16:52:13,15.08844016,0.0001596,53.2157,245.3516,91.731,268.3865,0.00036868,5.585e-05,0.0,0 STARLINK-3392,1 51123U 22005V   24087.70292940  .00005585  00000-0  36868-3 0  9992,2 51123  53.2157 245.3516 0001596  91.7310 268.3865 15.08844016121396,6917.868,95.437,540.837,538.629,0.0
51123.0,STARLINK-3392,PAYLOAD,2024-03-28 03:59:54,15.0885639,0.0001591,53.2158,243.2695,92.1916,267.9258,0.00043626,6.665e-05,0.0,0 STARLINK-3392,1 51123U 22005V   24088.16660192  .00006665  00000-0  43626-3 0  9991,2 51123  53.2158 243.2695 0001591  92.1916 267.9258 15.08856390122541,6917.83,95.437,540.796,538.595,0.0
51123.0,STARLINK-3392,PAYLOAD,2024-03-28 10:21:27,15.08853767,0.0002279,53.2151,242.0786,95.2841,264.8411,0.00028594,4.267e-05,0.0,0 STARLINK-3392,1 51123U 22005V   24088.43156389  .00004267  00000-0  28594-3 0  9992,2 51123  53.2151 242.0786 0002279  95.2841 264.8411 15.08853767121504,6917.838,95.437,541.28,538.127,0.0
51123.0,STARLINK-3392,PAYLOAD,2024-03-28 19:53:45,15.08846089,0.000166,53.2159,240.2972,91.9656,268.1527,4.5502e-05,4.36e-06,0.0,0 STARLINK-3392,1 51123U 22005V   24088.82900372  .00000436  00000-0  45502-4 0  9997,2 51123  53.2159 240.2972 0001660  91.9656 268.1527 15.08846089122649,6917.862,95.437,540.875,538.578,0.0
51123.0,STARLINK-3392,PAYLOAD,2024-03-29 10:12:13,15.08846061,0.0001727,53.2169,237.6205,102.5523,257.5662,9.9117e-05,1.29e-05,0.0,0 STARLINK-3392,1 51123U 22005V   24089.42516194  .00001290  00000-0  99117-4 0  9999,2 51123  53.2169 237.6205 0001727 102.5523 257.5662 15.08846061121657,6917.862,95.437,540.922,538.532,0.0
51123.0,STARLINK-3392,PAYLOAD,2024-03-29 16:33:46,15.08846018,0.0001709,53.2173,236.4306,99.9513,260.1672,0.00010218,1.339e-05,0.0,0 STARLINK-3392,1 51123U 22005V   24089.69012213  .00001339  00000-0  10218-3 0  9999,2 51123  53.2173 236.4306 0001709  99.9513 260.1672 15.08846018121696,6917.862,95.437,540.909,538.545,0.0
51123.0,STARLINK-3392,PAYLOAD,2024-03-30 13:13:47,15.08838671,0.0001579,53.2162,232.5648,94.9494,265.1679,0.00011179,1.492e-05,0.0,0 STARLINK-3392,1 51123U 22005V   24090.55124524  .00001492  00000-0  11179-3 0  9992,2 51123  53.2162 232.5648 0001579  94.9494 265.1679 15.08838671122901,6917.884,95.438,540.842,538.657,0.0
51123.0,STARLINK-3392,PAYLOAD,2024-03-30 16:24:33,15.08839111,0.0001337,53.2162,231.9711,81.3045,278.8099,0.00010228,1.34e-05,0.0,0 STARLINK-3392,1 51123U 22005V   24090.68372547  .00001340  00000-0  10228-3 0  9992,2 51123  53.2162 231.9711 0001337  81.3045 278.8099 15.08839111121848,6917.883,95.438,540.673,538.823,0.0
51123.0,STARLINK-3392,PAYLOAD,2024-03-31 14:39:57,15.08834715,0.0001637,53.2202,227.811,98.8355,261.2822,-6.5088e-07,-2.98e-06,0.0,0 STARLINK-3392,1 51123U 22005V   24091.61108741 -.00000298  00000-0 -65088-6 0  9999,2 51123  53.2202 227.8110 0001637  98.8355 261.2822 15.08834715121980,6917.897,95.438,540.894,538.629,0.0
51123.0,STARLINK-3392,PAYLOAD,2024-03-31 16:15:20,15.08835724,0.0001345,53.2171,227.5139,97.896,262.2185,2.7372e-05,1.48e-06,0.0,0 STARLINK-3392,1 51123U 22005V   24091.67732627  .00000148  00000-0  27372-4 0  9995,2 51123  53.2171 227.5139 0001345  97.8960 262.2185 15.08835724123076,6917.893,95.438,540.689,538.828,0.0
51123.0,STARLINK-3392,PAYLOAD,2024-04-01 01:47:39,15.0884368,0.0001404,53.2174,225.729,93.7604,266.3549,0.00011516,1.545e-05,0.0,0 STARLINK-3392,1 51123U 22005V   24092.07476235  .00001545  00000-0  11516-3 0  9994,2 51123  53.2174 225.7290 0001404  93.7604 266.3549 15.08843680123139,6917.869,95.437,540.705,538.763,0.0
51123.0,STARLINK-3392,PAYLOAD,2024-04-01 14:30:45,15.08829018,0.0001658,53.2183,223.3519,93.148,266.9702,-3.7385e-05,-8.83e-06,0.0,0 STARLINK-3392,1 51123U 22005V   24092.60469301 -.00000883  00000-0 -37385-4 0  9998,2 51123  53.2183 223.3519 0001658  93.1480 266.9702 15.08829018122139,6917.914,95.438,540.926,538.632,0.0
51123.0,STARLINK-3392,PAYLOAD,2024-04-01 17:41:31,15.08835273,0.0001465,53.2192,222.7525,87.2571,272.8589,9.2506e-05,1.184e-05,0.0,0 STARLINK-3392,1 51123U 22005V   24092.73717247  .00001184  00000-0  92506-4 0  9996,2 51123  53.2192 222.7525 0001465  87.2571 272.8589 15.08835273123231,6917.895,95.438,540.773,538.746,0.0
51123.0,STARLINK-3392,PAYLOAD,2024-04-02 01:38:26,15.08842567,0.0001508,53.2182,221.267,86.5564,273.5601,7.3103e-05,8.76e-06,0.0,0 STARLINK-3392,1 51123U 22005V   24093.06836649  .00000876  00000-0  73103-4 0  9990,2 51123  53.2182 221.2670 0001508  86.5564 273.5601 15.08842567123289,6917.873,95.437,540.781,538.694,0.0
51123.0,STARLINK-3392,PAYLOAD,2024-04-02 08:00:00,15.08830209,0.0001539,53.217,220.0793,92.8693,267.2475,4.9421e-05,4.98e-06,0.0,0 STARLINK-3392,1 51123U 22005V   24093.33333412  .00000498  00000-0  49421-4 0  9996,2 51123  53.2170 220.0793 0001539  92.8693 267.2475 15.08830209123320,6917.91,95.438,540.84,538.711,0.0
51123.0,STARLINK-3392,PAYLOAD,2024-04-02 12:46:09,15.08828283,0.0001429,53.217,219.1871,94.5482,265.5673,2.0552e-05,3.9e-07,0.0,0 STARLINK-3392,1 51123U 22005V   24093.53205631  .00000039  00000-0  20552-4 0  9994,2 51123  53.2170 219.1871 0001429  94.5482 265.5673 15.08828283122272,6917.916,95.438,540.77,538.793,0.0
51123.0,STARLINK-3392,PAYLOAD,2024-04-02 15:56:55,15.08831719,0.0001355,53.2165,218.5905,92.878,267.2368,-1.3164e-05,-4.97e-06,0.0,0 STARLINK-3392,1 51123U 22005V   24093.66453497 -.00000497  00000-0 -13164-4 0  9994,2 51123  53.2165 218.5905 0001355  92.8780 267.2368 15.08831719122297,6917.906,95.438,540.708,538.833,0.0
51123.0,STARLINK-3392,PAYLOAD,2024-04-03 01:29:14,15.08844461,0.0001423,53.2175,216.8064,91.4683,268.6472,0.00015277,2.145e-05,0.0,0 STARLINK-3392,1 51123U 22005V   24094.06196979  .00002145  00000-0  15277-3 0  9994,2 51123  53.2175 216.8064 0001423  91.4683 268.6472 15.08844461123434,6917.867,95.437,540.716,538.747,0.0
51123.0,STARLINK-3392,PAYLOAD,2024-04-03 14:12:19,15.08846576,0.0001534,53.218,214.4275,91.5348,268.582,0.00031772,4.773e-05,0.0,0 STARLINK-3392,1 51123U 22005V   24094.59189068  .00004773  00000-0  31772-3 0  9990,2 51123  53.2180 214.4275 0001534  91.5348 268.5820 15.08846576122434,6917.86,95.437,540.786,538.664,0.0
51123.0,STARLINK-3392,PAYLOAD,2024-04-03 17:23:05,15.08849708,0.000132,53.2169,213.8315,97.4176,262.6966,0.00026955,4.006e-05,0.0,0 STARLINK-3392,1 51123U 22005V   24094.72436834  .00004006  00000-0  26955-3 0  9997,2 51123  53.2169 213.8315 0001320  97.4176 262.6966 15.08849708122454,6917.851,95.437,540.629,538.803,0.0
51123.0,STARLINK-3392,PAYLOAD,2024-04-04 14:03:06,15.08836156,0.0001237,53.2163,209.9672,101.5059,258.6073,0.000139,1.925e-05,0.0,0 STARLINK-3392,1 51123U 22005V   24095.58549513  .00001925  00000-0  13900-3 0  9994,2 51123  53.2163 209.9672 0001237 101.5059 258.6073 15.08836156123665,6917.892,95.438,540.613,538.901,0.0
51123.0,STARLINK-3392,PAYLOAD,2024-04-05 13:53:53,15.08842451,0.000128,53.2157,205.5067,97.747,262.3668,0.00011613,1.561e-05,0.0,0 STARLINK-3392,1 51123U 22005V   24096.57909072  .00001561  00000-0  11613-3 0  9999,2 51123  53.2157 205.5067 0001280  97.7470 262.3668 15.08842451122733,6917.873,95.437,540.623,538.852,0.0
